{
  "type": "FeatureCollection",
  "features": [
    {
      "type": "Feature",
      "properties": {
        "norad_id": 38250,
        "name": "BEIDOU-2 M3 (C11)",
        "group": "beidou",
        "lat": 53.04794590312345,
        "lon": 14.782618812900525,
        "alt_km": 21584.872094801223,
        "timestamp": "2025-12-25T20:42:38.953016+00:00",
        "meta_object_name": "BEIDOU-2 M3 (C11)",
        "meta_object_id": "2012-018A",
        "meta_epoch": "2025-12-24T03:22:03.617760",
        "meta_mean_motion": 1.86230154,
        "meta_eccentricity": 0.00241099,
        "meta_inclination": 55.9106,
        "meta_ra_of_asc_node": 310.7747,
        "meta_arg_of_pericenter": 275.3713,
        "meta_mean_anomaly": 84.3565,
        "meta_ephemeris_type": 0,
        "meta_classification_type": "U",
        "meta_norad_cat_id": 38250,
        "meta_element_set_no": 999,
        "meta_rev_at_epoch": 9268,
        "meta_bstar": 0,
        "meta_mean_motion_dot": -5.3e-07,
        "meta_mean_motion_ddot": 0,
        "tle_line1": "1 38250U 12018A   25358.14031965 -.00000053  00000+0  00000+0 0  9999",
        "tle_line2": "2 38250  55.9106 310.7747 0024109 275.3713  84.3565  1.86230154 92685"
      },
      "geometry": {
        "type": "Point",
        "coordinates": [
          14.782618812900525,
          53.04794590312345
        ]
      }
    },
    {
      "type": "Feature",
      "properties": {
        "norad_id": 38251,
        "name": "BEIDOU-2 M4 (C12)",
        "group": "beidou",
        "lat": 45.60240079736874,
        "lon": 86.0171058502125,
        "alt_km": 21562.046901671485,
        "timestamp": "2025-12-25T20:42:38.953027+00:00",
        "meta_object_name": "BEIDOU-2 M4 (C12)",
        "meta_object_id": "2012-018B",
        "meta_epoch": "2025-12-25T03:30:42.765120",
        "meta_mean_motion": 1.86229477,
        "meta_eccentricity": 0.0014906,
        "meta_inclination": 55.8105,
        "meta_ra_of_asc_node": 309.9689,
        "meta_arg_of_pericenter": 280.9074,
        "meta_mean_anomaly": 78.9304,
        "meta_ephemeris_type": 0,
        "meta_classification_type": "U",
        "meta_norad_cat_id": 38251,
        "meta_element_set_no": 999,
        "meta_rev_at_epoch": 9270,
        "meta_bstar": 0,
        "meta_mean_motion_dot": -5.3e-07,
        "meta_mean_motion_ddot": 0,
        "tle_line1": "1 38251U 12018B   25359.14632830 -.00000053  00000+0  00000+0 0  9999",
        "tle_line2": "2 38251  55.8105 309.9689 0014906 280.9074  78.9304  1.86229477 92704"
      },
      "geometry": {
        "type": "Point",
        "coordinates": [
          86.0171058502125,
          45.60240079736874
        ]
      }
    },
    {
      "type": "Feature",
      "properties": {
        "norad_id": 38775,
        "name": "BEIDOU-2 M6 (C14)",
        "group": "beidou",
        "lat": -36.63870531507658,
        "lon": 39.04197147838665,
        "alt_km": 21504.553707256524,
        "timestamp": "2025-12-25T20:42:38.953038+00:00",
        "meta_object_name": "BEIDOU-2 M6 (C14)",
        "meta_object_id": "2012-050B",
        "meta_epoch": "2025-12-24T07:41:05.368128",
        "meta_mean_motion": 1.86230801,
        "meta_eccentricity": 0.00114872,
        "meta_inclination": 56.388,
        "meta_ra_of_asc_node": 68.6832,
        "meta_arg_of_pericenter": 343.1884,
        "meta_mean_anomaly": 16.8281,
        "meta_ephemeris_type": 0,
        "meta_classification_type": "U",
        "meta_norad_cat_id": 38775,
        "meta_element_set_no": 999,
        "meta_rev_at_epoch": 9005,
        "meta_bstar": 0,
        "meta_mean_motion_dot": -2.4e-07,
        "meta_mean_motion_ddot": 0,
        "tle_line1": "1 38775U 12050B   25358.32020102 -.00000024  00000+0  00000+0 0  9996",
        "tle_line2": "2 38775  56.3880  68.6832 0011487 343.1884  16.8281  1.86230801 90056"
      },
      "geometry": {
        "type": "Point",
        "coordinates": [
          39.04197147838665,
          -36.63870531507658
        ]
      }
    },
    {
      "type": "Feature",
      "properties": {
        "norad_id": 38953,
        "name": "BEIDOU-2 G6 (C02)",
        "group": "beidou",
        "lat": 3.234074076580855,
        "lon": 129.22615181798645,
        "alt_km": 35801.49358887251,
        "timestamp": "2025-12-25T20:42:38.953050+00:00",
        "meta_object_name": "BEIDOU-2 G6 (C02)",
        "meta_object_id": "2012-059A",
        "meta_epoch": "2025-12-25T01:00:51.719328",
        "meta_mean_motion": 1.00274262,
        "meta_eccentricity": 0.00079973,
        "meta_inclination": 3.9787,
        "meta_ra_of_asc_node": 75.3898,
        "meta_arg_of_pericenter": 294.4199,
        "meta_mean_anomaly": 183.1448,
        "meta_ephemeris_type": 0,
        "meta_classification_type": "U",
        "meta_norad_cat_id": 38953,
        "meta_element_set_no": 999,
        "meta_rev_at_epoch": 4816,
        "meta_bstar": 0,
        "meta_mean_motion_dot": -1.55e-06,
        "meta_mean_motion_ddot": 0,
        "tle_line1": "1 38953U 12059A   25359.04226527 -.00000155  00000+0  00000+0 0  9997",
        "tle_line2": "2 38953   3.9787  75.3898 0007997 294.4199 183.1448  1.00274262 48166"
      },
      "geometry": {
        "type": "Point",
        "coordinates": [
          129.22615181798645,
          3.234074076580855
        ]
      }
    },
    {
      "type": "Feature",
      "properties": {
        "norad_id": 40549,
        "name": "BEIDOU-3S IGSO-1S (C31)",
        "group": "beidou",
        "lat": -17.014845215802676,
        "lon": 132.65296995849914,
        "alt_km": 35631.82122855794,
        "timestamp": "2025-12-25T20:42:38.953061+00:00",
        "meta_object_name": "BEIDOU-3S IGSO-1S (C31)",
        "meta_object_id": "2015-019A",
        "meta_epoch": "2025-12-25T15:56:01.301280",
        "meta_mean_motion": 1.00289972,
        "meta_eccentricity": 0.0036463,
        "meta_inclination": 49.527,
        "meta_ra_of_asc_node": 297.5591,
        "meta_arg_of_pericenter": 193.9448,
        "meta_mean_anomaly": 296.7175,
        "meta_ephemeris_type": 0,
        "meta_classification_type": "U",
        "meta_norad_cat_id": 40549,
        "meta_element_set_no": 999,
        "meta_rev_at_epoch": 3933,
        "meta_bstar": 0,
        "meta_mean_motion_dot": -1.75e-06,
        "meta_mean_motion_ddot": 0,
        "tle_line1": "1 40549U 15019A   25359.66390395 -.00000175  00000+0  00000+0 0  9995",
        "tle_line2": "2 40549  49.5270 297.5591 0036463 193.9448 296.7175  1.00289972 39332"
      },
      "geometry": {
        "type": "Point",
        "coordinates": [
          132.65296995849914,
          -17.014845215802676
        ]
      }
    },
    {
      "type": "Feature",
      "properties": {
        "norad_id": 40748,
        "name": "BEIDOU-3S M2S (C58)",
        "group": "beidou",
        "lat": -13.87794202691476,
        "lon": -61.950812362111435,
        "alt_km": 21519.808600735476,
        "timestamp": "2025-12-25T20:42:38.953073+00:00",
        "meta_object_name": "BEIDOU-3S M2S (C58)",
        "meta_object_id": "2015-037A",
        "meta_epoch": "2025-12-24T19:32:44.901312",
        "meta_mean_motion": 1.86229543,
        "meta_eccentricity": 0.00118109,
        "meta_inclination": 55.028,
        "meta_ra_of_asc_node": 308.0499,
        "meta_arg_of_pericenter": 271.2412,
        "meta_mean_anomaly": 88.6304,
        "meta_ephemeris_type": 0,
        "meta_classification_type": "U",
        "meta_norad_cat_id": 40748,
        "meta_element_set_no": 999,
        "meta_rev_at_epoch": 7087,
        "meta_bstar": 0,
        "meta_mean_motion_dot": -5.3e-07,
        "meta_mean_motion_ddot": 0,
        "tle_line1": "1 40748U 15037A   25358.81440858 -.00000053  00000+0  00000+0 0  9997",
        "tle_line2": "2 40748  55.0280 308.0499 0011810 271.2412  88.6304  1.86229543 70879"
      },
      "geometry": {
        "type": "Point",
        "coordinates": [
          -61.950812362111435,
          -13.87794202691476
        ]
      }
    },
    {
      "type": "Feature",
      "properties": {
        "norad_id": 40749,
        "name": "BEIDOU-3S M1S (C57)",
        "group": "beidou",
        "lat": -8.071038623397746,
        "lon": 133.677458391537,
        "alt_km": 21537.280530621818,
        "timestamp": "2025-12-25T20:42:38.953084+00:00",
        "meta_object_name": "BEIDOU-3S M1S (C57)",
        "meta_object_id": "2015-037B",
        "meta_epoch": "2025-12-25T01:01:53.071104",
        "meta_mean_motion": 1.86253893,
        "meta_eccentricity": 0.00036899,
        "meta_inclination": 55.0241,
        "meta_ra_of_asc_node": 308.031,
        "meta_arg_of_pericenter": 2.2616,
        "meta_mean_anomaly": 357.7473,
        "meta_ephemeris_type": 0,
        "meta_classification_type": "U",
        "meta_norad_cat_id": 40749,
        "meta_element_set_no": 999,
        "meta_rev_at_epoch": 7088,
        "meta_bstar": 0,
        "meta_mean_motion_dot": -5.3e-07,
        "meta_mean_motion_ddot": 0,
        "tle_line1": "1 40749U 15037B   25359.04297536 -.00000053  00000+0  00000+0 0  9997",
        "tle_line2": "2 40749  55.0241 308.0310 0003689   2.2616 357.7473  1.86253893 70885"
      },
      "geometry": {
        "type": "Point",
        "coordinates": [
          133.677458391537,
          -8.071038623397746
        ]
      }
    }
  ]
}